NORAD_CAT_ID,OBJECT_NAME,OBJECT_TYPE,EPOCH,MEAN_MOTION,ECCENTRICITY,INCLINATION,RA_OF_ASC_NODE,ARG_OF_PERICENTER,MEAN_ANOMALY,BSTAR,MEAN_MOTION_DOT,MEAN_MOTION_DDOT,TLE_LINE0,TLE_LINE1,TLE_LINE2,SEMIMAJOR_AXIS,PERIOD,APOGEE,PERIGEE,DECAYED
53620.0,STARLINK-4615,PAYLOAD,2023-12-01 08:09:14,15.08847164,0.0002176,53.2209,357.0624,93.8528,266.2713,-6.1948e-05,-1.274e-05,0.0,0 STARLINK-4615,1 53620U 22104AJ  23335.33975614 -.00001274  00000-0 -61948-4 0  9997,2 53620  53.2209 357.0624 0002176  93.8528 266.2713 15.08847164 70544,6917.858,95.437,541.229,538.218,0.0
53620.0,STARLINK-4615,PAYLOAD,2023-12-02 01:38:28,15.08848817,0.0001931,53.2188,353.7882,106.7256,253.3949,0.0001279,1.748e-05,0.0,0 STARLINK-4615,1 53620U 22104AJ  23336.06838605  .00001748  00000-0  12790-3 0  9990,2 53620  53.2188 353.7882 0001931 106.7256 253.3949 15.08848817 69978,6917.853,95.437,541.054,538.383,0.0
53620.0,STARLINK-4615,PAYLOAD,2023-12-02 11:10:46,15.08875909,0.0002074,53.2177,352.0021,108.8118,251.3099,0.00056861,8.782e-05,0.0,0 STARLINK-4615,1 53620U 22104AJ  23336.46581331  .00008782  00000-0  56861-3 0  9997,2 53620  53.2177 352.0021 0002074 108.8118 251.3099 15.08875909 70037,6917.771,95.435,541.07,538.201,0.0
53620.0,STARLINK-4615,PAYLOAD,2023-12-03 01:29:16,15.08813788,0.0001774,53.2183,349.3325,79.3557,280.7635,-0.00054933,-9.014e-05,0.0,0 STARLINK-4615,1 53620U 22104AJ  23337.06200186 -.00009014  00000-0 -54933-3 0  9999,2 53620  53.2183 349.3325 0001774  79.3557 280.7635 15.08813788 70124,6917.961,95.439,541.053,538.598,0.0
53620.0,STARLINK-4615,PAYLOAD,2023-12-03 07:50:50,15.08807312,0.00018,53.2174,348.1407,81.5363,278.5833,-0.00050181,-8.258e-05,0.0,0 STARLINK-4615,1 53620U 22104AJ  23337.32697057 -.00008258  00000-0 -50181-3 0  9995,2 53620  53.2174 348.1407 0001800  81.5363 278.5833 15.08807312 70842,6917.98,95.44,541.091,538.6,0.0
53620.0,STARLINK-4615,PAYLOAD,2023-12-04 01:20:04,15.088303,0.000172,53.2177,344.8628,100.4741,259.6445,0.00020035,2.901e-05,0.0,0 STARLINK-4615,1 53620U 22104AJ  23338.05560713  .00002901  00000-0  20035-3 0  9996,2 53620  53.2177 344.8628 0001720 100.4741 259.6445 15.08830300 70274,6917.91,95.438,540.965,538.585,0.0
53620.0,STARLINK-4615,PAYLOAD,2023-12-04 12:27:46,15.08850388,0.0002127,53.2174,342.781,87.37,272.7536,0.00086637,0.00013531,0.0,0 STARLINK-4615,1 53620U 22104AJ  23338.51928630  .00013531  00000-0  86637-3 0  9994,2 53620  53.2174 342.7810 0002127  87.3700 272.7536 15.08850388 71020,6917.849,95.437,541.185,538.242,0.0
53620.0,STARLINK-4615,PAYLOAD,2023-12-05 01:10:51,15.08850997,0.000194,53.2167,340.4068,78.8944,281.2267,0.000374,5.671e-05,0.0,0 STARLINK-4615,1 53620U 22104AJ  23339.04920828  .00005671  00000-0  37400-3 0  9994,2 53620  53.2167 340.4068 0001940  78.8944 281.2267 15.08850997 70424,6917.847,95.437,541.054,538.37,0.0
53620.0,STARLINK-4615,PAYLOAD,2023-12-05 09:07:46,15.08875922,0.0001944,53.2165,338.9182,85.0184,275.103,0.0011725,0.0001844,0.0,0 STARLINK-4615,1 53620U 22104AJ  23339.38039954  .00018440  00000-0  11725-2 0  9991,2 53620  53.2165 338.9182 0001944  85.0184 275.1030 15.08875922 70471,6917.771,95.435,540.98,538.291,0.0
53620.0,STARLINK-4615,PAYLOAD,2023-12-06 04:12:23,15.0885912,0.0003123,53.2162,335.3488,129.1581,230.9689,0.0013241,0.0002086,0.0,0 STARLINK-4615,1 53620U 22104AJ  23340.17527620  .00020860  00000-0  13241-2 0  9996,2 53620  53.2162 335.3488 0003123 129.1581 230.9689 15.08859120 70594,6917.822,95.436,541.847,537.527,0.0
53620.0,STARLINK-4615,PAYLOAD,2023-12-06 08:58:33,15.08850848,0.0002133,53.2169,334.4544,99.6263,260.497,0.0002821,4.206e-05,0.0,0 STARLINK-4615,1 53620U 22104AJ  23340.37399673  .00004206  00000-0  28210-3 0  9992,2 53620  53.2169 334.4544 0002133  99.6263 260.4970 15.08850848 70625,6917.847,95.437,541.188,538.237,0.0
53620.0,STARLINK-4615,PAYLOAD,2023-12-07 04:03:11,15.0883317,0.0002445,53.2174,330.8912,78.2838,281.8428,-3.5418e-05,-8.52e-06,0.0,0 STARLINK-4615,1 53620U 22104AJ  23341.16888592 -.00000852  00000-0 -35418-4 0  9997,2 53620  53.2174 330.8912 0002445  78.2838 281.8428 15.08833170 70744,6917.901,95.438,541.458,538.075,0.0
53620.0,STARLINK-4615,PAYLOAD,2023-12-07 07:13:57,15.0883918,0.0001977,53.2168,330.293,93.41,266.7118,-5.7864e-05,-1.209e-05,0.0,0 STARLINK-4615,1 53620U 22104AJ  23341.30136381 -.00001209  00000-0 -57864-4 0  9991,2 53620  53.2168 330.2930 0001977  93.4100 266.7118 15.08839180 71444,6917.883,95.438,541.116,538.38,0.0
53620.0,STARLINK-4615,PAYLOAD,2023-12-08 08:40:08,15.08844268,0.000203,53.2171,325.5346,97.9284,262.1939,0.00012821,1.753e-05,0.0,0 STARLINK-4615,1 53620U 22104AJ  23342.36120406  .00001753  00000-0  12821-3 0  9994,2 53620  53.2171 325.5346 0002030  97.9284 262.1939 15.08844268 70925,6917.867,95.437,541.137,538.328,0.0
53620.0,STARLINK-4615,PAYLOAD,2023-12-09 05:20:08,15.08849141,0.0001942,53.2167,321.6683,87.4748,272.6467,0.00028306,4.221e-05,0.0,0 STARLINK-4615,1 53620U 22104AJ  23343.22232220  .00004221  00000-0  28306-3 0  9996,2 53620  53.2167 321.6683 0001942  87.4748 272.6467 15.08849141 71738,6917.852,95.437,541.061,538.374,0.0
53620.0,STARLINK-4615,PAYLOAD,2023-12-09 22:49:23,15.08842473,0.0002099,53.2172,318.3979,104.6316,255.4909,8.5934e-05,1.08e-05,0.0,0 STARLINK-4615,1 53620U 22104AJ  23343.95096404  .00001080  00000-0  85934-4 0  9999,2 53620  53.2172 318.3979 0002099 104.6316 255.4909 15.08842473 71845,6917.873,95.437,541.19,538.286,0.0
53620.0,STARLINK-4615,PAYLOAD,2023-12-11 03:26:19,15.08840513,0.0001829,53.2161,313.0467,101.9246,258.1951,-3.9013e-05,-9.09e-06,0.0,0 STARLINK-4615,1 53620U 22104AJ  23345.14328513 -.00000909  00000-0 -39013-4 0  9999,2 53620  53.2161 313.0467 0001829 101.9246 258.1951 15.08840513 71344,6917.879,95.438,541.009,538.479,0.0
53620.0,STARLINK-4615,PAYLOAD,2023-12-12 04:52:30,15.08839648,0.0001802,53.2169,308.2925,97.9088,262.2109,0.00013776,1.905e-05,0.0,0 STARLINK-4615,1 53620U 22104AJ  23346.20312812  .00001905  00000-0  13776-3 0  9994,2 53620  53.2169 308.2925 0001802  97.9088 262.2109 15.08839648 71502,6917.881,95.438,540.993,538.5,0.0
53620.0,STARLINK-4615,PAYLOAD,2023-12-13 04:43:18,15.0882659,0.0001866,53.2173,303.8309,88.0129,272.1077,0.00056953,8.784e-05,0.0,0 STARLINK-4615,1 53620U 22104AJ  23347.19673625  .00008784  00000-0  56953-3 0  9991,2 53620  53.2173 303.8309 0001866  88.0129 272.1077 15.08826590 71653,6917.921,95.438,541.077,538.495,0.0
53620.0,STARLINK-4615,PAYLOAD,2023-12-14 04:34:04,15.08841988,0.0001875,53.2172,299.3684,76.9126,283.2075,7.119e-05,8.45e-06,0.0,0 STARLINK-4615,1 53620U 22104AJ  23348.19032917  .00000845  00000-0  71190-4 0  9996,2 53620  53.2172 299.3684 0001875  76.9126 283.2075 15.08841988 72481,6917.874,95.437,541.036,538.442,0.0
53620.0,STARLINK-4615,PAYLOAD,2023-12-15 02:49:28,15.08847306,0.0002328,53.2178,295.2052,62.4531,297.6697,0.00015554,2.188e-05,0.0,0 STARLINK-4615,1 53620U 22104AJ  23349.11768772  .00002188  00000-0  15554-3 0  9997,2 53620  53.2178 295.2052 0002328  62.4531 297.6697 15.08847306 71944,6917.858,95.437,541.334,538.113,0.0
53620.0,STARLINK-4615,PAYLOAD,2023-12-16 02:40:13,15.08874246,0.0001626,53.2168,290.7441,77.9653,282.1522,0.00050655,7.79e-05,0.0,0 STARLINK-4615,1 53620U 22104AJ  23350.11126818  .00007790  00000-0  50655-3 0  9993,2 53620  53.2168 290.7441 0001626  77.9653 282.1522 15.08874246 72097,6917.776,95.435,540.766,538.516,0.0
53620.0,STARLINK-4615,PAYLOAD,2023-12-17 02:31:01,15.0883896,0.0001768,53.216,286.2904,129.8156,230.2992,-0.00010231,-1.916e-05,0.0,0 STARLINK-4615,1 53620U 22104AJ  23351.10487798 -.00001916  00000-0 -10231-3 0  9992,2 53620  53.2160 286.2904 0001768 129.8156 230.2992 15.08838960 72240,6917.884,95.438,540.972,538.525,0.0
53620.0,STARLINK-4615,PAYLOAD,2023-12-17 21:35:39,15.08841995,0.0001142,53.2156,282.717,83.5747,276.5375,-0.00022729,-3.903e-05,0.0,0 STARLINK-4615,1 53620U 22104AJ  23351.89976059 -.00003903  00000-0 -22729-3 0  9994,2 53620  53.2156 282.7170 0001142  83.5747 276.5375 15.08841995 73048,6917.874,95.437,540.529,538.949,0.0
53620.0,STARLINK-4615,PAYLOAD,2023-12-18 02:21:47,15.08859045,0.0001407,53.2167,281.8235,108.1195,251.9951,4.8252e-05,4.8e-06,0.0,0 STARLINK-4615,1 53620U 22104AJ  23352.09846875  .00000480  00000-0  48252-4 0  9994,2 53620  53.2167 281.8235 0001407 108.1195 251.9951 15.08859045 72396,6917.822,95.436,540.661,538.714,0.0
53620.0,STARLINK-4615,PAYLOAD,2023-12-19 02:12:37,15.08826776,0.0001386,53.2165,277.3677,98.3769,261.7381,9.4892e-05,1.222e-05,0.0,0 STARLINK-4615,1 53620U 22104AJ  23353.09209556  .00001222  00000-0  94892-4 0  9990,2 53620  53.2165 277.3677 0001386  98.3769 261.7381 15.08826776 72545,6917.921,95.438,540.745,538.827,0.0
53620.0,STARLINK-4615,PAYLOAD,2023-12-20 02:03:23,15.08846466,0.0001491,53.2159,272.9033,110.9274,249.1878,0.00027712,4.126e-05,0.0,0 STARLINK-4615,1 53620U 22104AJ  23354.08569151  .00004126  00000-0  27712-3 0  9992,2 53620  53.2159 272.9033 0001491 110.9274 249.1878 15.08846466 72699,6917.861,95.437,540.757,538.694,0.0
53620.0,STARLINK-4615,PAYLOAD,2023-12-20 22:43:24,15.08848768,0.0001669,53.216,269.0429,119.2238,240.8921,0.00022469,3.291e-05,0.0,0 STARLINK-4615,1 53620U 22104AJ  23354.94681035  .00003291  00000-0  22469-3 0  9999,2 53620  53.2160 269.0429 0001669 119.2238 240.8921 15.08848768 73501,6917.854,95.437,540.873,538.564,0.0
53620.0,STARLINK-4615,PAYLOAD,2023-12-21 01:54:10,15.08852101,0.0001572,53.2162,268.4436,84.1891,275.928,0.00031029,4.655e-05,0.0,0 STARLINK-4615,1 53620U 22104AJ  23355.07929057  .00004655  00000-0  31029-3 0  9990,2 53620  53.2162 268.4436 0001572  84.1891 275.9280 15.08852101 72841,6917.843,95.437,540.796,538.621,0.0
53620.0,STARLINK-4615,PAYLOAD,2023-12-21 22:34:11,15.08836269,0.0001613,53.2159,264.5779,73.0191,287.0977,-4.2255e-05,-9.6e-06,0.0,0 STARLINK-4615,1 53620U 22104AJ  23355.94041536 -.00000960  00000-0 -42255-4 0  9994,2 53620  53.2159 264.5779 0001613  73.0191 287.0977 15.08836269 73654,6917.892,95.438,540.873,538.641,0.0
